[{"OBJECT_NAME":"ONEWEB-0627","OBJECT_ID":"2023-004AE","EPOCH":"2025-09-15T11:26:40.049952","MEAN_MOTION":13.17649895,"ECCENTRICITY":0.00023061,"INCLINATION":87.9042,"RA_OF_ASC_NODE":60.5291,"ARG_OF_PERICENTER":93.6154,"MEAN_ANOMALY":266.5241,"EPHEMERIS_TYPE":0,"CLASSIFICATION_TYPE":"U","NORAD_CAT_ID":55168,"ELEMENT_SET_NO":999,"REV_AT_EPOCH":13140,"BSTAR":7.1404962e-5,"MEAN_MOTION_DOT":4.1e-7,"MEAN_MOTION_DDOT":0},{"OBJECT_NAME":"ONEWEB-0628","OBJECT_ID":"2023-004AF","EPOCH":"2025-09-15T08:10:06.879360","MEAN_MOTION":13.12442052,"ECCENTRICITY":0.00023681,"INCLINATION":87.8907,"RA_OF_ASC_NODE":45.2525,"ARG_OF_PERICENTER":89.5058,"MEAN_ANOMALY":270.6342,"EPHEMERIS_TYPE":0,"CLASSIFICATION_TYPE":"U","NORAD_CAT_ID":55169,"ELEMENT_SET_NO":999,"REV_AT_EPOCH":13198,"BSTAR":0.00048032799,"MEAN_MOTION_DOT":1.86e-6,"MEAN_MOTION_DDOT":0},{"OBJECT_NAME":"ONEWEB-0629","OBJECT_ID":"2023-004AG","EPOCH":"2025-09-15T12:40:47.036352","MEAN_MOTION":13.17648854,"ECCENTRICITY":0.0001849,"INCLINATION":87.905,"RA_OF_ASC_NODE":60.5131,"ARG_OF_PERICENTER":81.9382,"MEAN_ANOMALY":278.1959,"EPHEMERIS_TYPE":0,"CLASSIFICATION_TYPE":"U","NORAD_CAT_ID":55170,"ELEMENT_SET_NO":999,"REV_AT_EPOCH":13141,"BSTAR":-5.4007471e-5,"MEAN_MOTION_DOT":-8.0e-8,"MEAN_MOTION_DDOT":0},{"OBJECT_NAME":"ONEWEB-0631","OBJECT_ID":"2023-004AH","EPOCH":"2025-09-15T02:59:32.859168","MEAN_MOTION":13.18684205,"ECCENTRICITY":0.00020261,"INCLINATION":87.9192,"RA_OF_ASC_NODE":30.0498,"ARG_OF_PERICENTER":113.6989,"MEAN_ANOMALY":246.4356,"EPHEMERIS_TYPE":0,"CLASSIFICATION_TYPE":"U","NORAD_CAT_ID":55171,"ELEMENT_SET_NO":999,"REV_AT_EPOCH":13342,"BSTAR":0.00013322356,"MEAN_MOTION_DOT":6.5e-7,"MEAN_MOTION_DDOT":0},{"OBJECT_NAME":"ONEWEB-0709","OBJECT_ID":"2023-004AJ","EPOCH":"2025-09-15T11:01:54.768288","MEAN_MOTION":13.11417774,"ECCENTRICITY":0.00014431,"INCLINATION":87.8775,"RA_OF_ASC_NODE":75.8225,"ARG_OF_PERICENTER":123.5491,"MEAN_ANOMALY":236.5775,"EPHEMERIS_TYPE":0,"CLASSIFICATION_TYPE":"U","NORAD_CAT_ID":55172,"ELEMENT_SET_NO":999,"REV_AT_EPOCH":12986,"BSTAR":-0.0006520584,"MEAN_MOTION_DOT":-2.18e-6,"MEAN_MOTION_DDOT":0},{"OBJECT_NAME":"ONEWEB-0710","OBJECT_ID":"2023-004AK","EPOCH":"2025-09-15T11:12:03.604032","MEAN_MOTION":13.17651647,"ECCENTRICITY":0.00019253,"INCLINATION":87.9042,"RA_OF_ASC_NODE":60.5211,"ARG_OF_PERICENTER":92.7461,"MEAN_ANOMALY":267.3891,"EPHEMERIS_TYPE":0,"CLASSIFICATION_TYPE":"U","NORAD_CAT_ID":55173,"ELEMENT_SET_NO":999,"REV_AT_EPOCH":13140,"BSTAR":3.5812705e-5,"MEAN_MOTION_DOT":2.7e-7,"MEAN_MOTION_DDOT":0},{"OBJECT_NAME":"ONEWEB-0711","OBJECT_ID":"2023-004AL","EPOCH":"2025-09-15T12:10:17.077440","MEAN_MOTION":13.11414738,"ECCENTRICITY":0.00024876,"INCLINATION":87.8778,"RA_OF_ASC_NODE":75.7805,"ARG_OF_PERICENTER":90.2143,"MEAN_ANOMALY":269.927,"EPHEMERIS_TYPE":0,"CLASSIFICATION_TYPE":"U","NORAD_CAT_ID":55174,"ELEMENT_SET_NO":999,"REV_AT_EPOCH":12983,"BSTAR":-0.00034769611,"MEAN_MOTION_DOT":-1.11e-6,"MEAN_MOTION_DDOT":0},{"OBJECT_NAME":"ONEWEB-0713","OBJECT_ID":"2023-004AM","EPOCH":"2025-09-15T12:37:07.982112","MEAN_MOTION":13.11418152,"ECCENTRICITY":0.00019827,"INCLINATION":87.8773,"RA_OF_ASC_NODE":75.7838,"ARG_OF_PERICENTER":90.3413,"MEAN_ANOMALY":269.7942,"EPHEMERIS_TYPE":0,"CLASSIFICATION_TYPE":"U","NORAD_CAT_ID":55175,"ELEMENT_SET_NO":999,"REV_AT_EPOCH":12982,"BSTAR":-0.001465022,"MEAN_MOTION_DOT":-5.07e-6,"MEAN_MOTION_DDOT":0},{"OBJECT_NAME":"ONEWEB-0715","OBJECT_ID":"2023-004AN","EPOCH":"2025-09-15T12:29:49.377696","MEAN_MOTION":13.11417799,"ECCENTRICITY":0.00018388,"INCLINATION":87.8771,"RA_OF_ASC_NODE":75.785,"ARG_OF_PERICENTER":113.8729,"MEAN_ANOMALY":246.2592,"EPHEMERIS_TYPE":0,"CLASSIFICATION_TYPE":"U","NORAD_CAT_ID":55176,"ELEMENT_SET_NO":999,"REV_AT_EPOCH":12986,"BSTAR":-0.0015168497,"MEAN_MOTION_DOT":-5.25e-6,"MEAN_MOTION_DDOT":0},{"OBJECT_NAME":"ONEWEB-0716","OBJECT_ID":"2023-004AP","EPOCH":"2025-09-15T11:02:21.470208","MEAN_MOTION":13.17648353,"ECCENTRICITY":0.00014785,"INCLINATION":87.9044,"RA_OF_ASC_NODE":60.5218,"ARG_OF_PERICENTER":86.4872,"MEAN_ANOMALY":273.6429,"EPHEMERIS_TYPE":0,"CLASSIFICATION_TYPE":"U","NORAD_CAT_ID":55177,"ELEMENT_SET_NO":999,"REV_AT_EPOCH":13140,"BSTAR":-9.7192901e-5,"MEAN_MOTION_DOT":-2.5e-7,"MEAN_MOTION_DDOT":0},{"OBJECT_NAME":"ONEWEB-0717","OBJECT_ID":"2023-004AQ","EPOCH":"2025-09-15T05:10:00.164352","MEAN_MOTION":13.176489,"ECCENTRICITY":0.00024668,"INCLINATION":87.9052,"RA_OF_ASC_NODE":60.5339,"ARG_OF_PERICENTER":97.6605,"MEAN_ANOMALY":262.4807,"EPHEMERIS_TYPE":0,"CLASSIFICATION_TYPE":"U","NORAD_CAT_ID":55178,"ELEMENT_SET_NO":999,"REV_AT_EPOCH":13142,"BSTAR":0.0002155478,"MEAN_MOTION_DOT":9.7e-7,"MEAN_MOTION_DDOT":0},{"OBJECT_NAME":"ONEWEB-0719","OBJECT_ID":"2023-004AR","EPOCH":"2025-09-15T09:03:16.501248","MEAN_MOTION":13.17647013,"ECCENTRICITY":0.00016575,"INCLINATION":87.9048,"RA_OF_ASC_NODE":60.4844,"ARG_OF_PERICENTER":83.7924,"MEAN_ANOMALY":276.3396,"EPHEMERIS_TYPE":0,"CLASSIFICATION_TYPE":"U","NORAD_CAT_ID":55179,"ELEMENT_SET_NO":999,"REV_AT_EPOCH":13139,"BSTAR":-2.2474716e-5,"MEAN_MOTION_DOT":4.0e-8,"MEAN_MOTION_DDOT":0},{"OBJECT_NAME":"ONEWEB-0530","OBJECT_ID":"2023-029A","EPOCH":"2025-09-15T04:03:27.452736","MEAN_MOTION":13.20771681,"ECCENTRICITY":0.00023665,"INCLINATION":87.9273,"RA_OF_ASC_NODE":329.3152,"ARG_OF_PERICENTER":93.1502,"MEAN_ANOMALY":266.9902,"EPHEMERIS_TYPE":0,"CLASSIFICATION_TYPE":"U","NORAD_CAT_ID":55796,"ELEMENT_SET_NO":999,"REV_AT_EPOCH":12484,"BSTAR":-1.3082969e-5,"MEAN_MOTION_DOT":8.0e-8,"MEAN_MOTION_DDOT":0},{"OBJECT_NAME":"ONEWEB-0534","OBJECT_ID":"2023-029B","EPOCH":"2025-09-15T11:01:38.468064","MEAN_MOTION":13.20772397,"ECCENTRICITY":0.0001828,"INCLINATION":87.9265,"RA_OF_ASC_NODE":329.2615,"ARG_OF_PERICENTER":96.3169,"MEAN_ANOMALY":263.8172,"EPHEMERIS_TYPE":0,"CLASSIFICATION_TYPE":"U","NORAD_CAT_ID":55797,"ELEMENT_SET_NO":999,"REV_AT_EPOCH":12488,"BSTAR":0.00019073612,"MEAN_MOTION_DOT":9.1e-7,"MEAN_MOTION_DDOT":0},{"OBJECT_NAME":"ONEWEB-0556","OBJECT_ID":"2023-029C","EPOCH":"2025-09-15T11:10:44.218848","MEAN_MOTION":13.20772091,"ECCENTRICITY":0.00020515,"INCLINATION":87.9274,"RA_OF_ASC_NODE":329.2557,"ARG_OF_PERICENTER":76.0896,"MEAN_ANOMALY":284.0466,"EPHEMERIS_TYPE":0,"CLASSIFICATION_TYPE":"U","NORAD_CAT_ID":55798,"ELEMENT_SET_NO":999,"REV_AT_EPOCH":12488,"BSTAR":0.00040481684,"MEAN_MOTION_DOT":1.78e-6,"MEAN_MOTION_DDOT":0},{"OBJECT_NAME":"ONEWEB-0562","OBJECT_ID":"2023-029D","EPOCH":"2025-09-15T14:30:42.701760","MEAN_MOTION":13.20769376,"ECCENTRICITY":0.00026155,"INCLINATION":87.9267,"RA_OF_ASC_NODE":329.2151,"ARG_OF_PERICENTER":83.0195,"MEAN_ANOMALY":277.1236,"EPHEMERIS_TYPE":0,"CLASSIFICATION_TYPE":"U","NORAD_CAT_ID":55799,"ELEMENT_SET_NO":999,"REV_AT_EPOCH":12490,"BSTAR":5.1041662e-5,"MEAN_MOTION_DOT":3.4e-7,"MEAN_MOTION_DDOT":0}]
