ONEWEB-0627             
1 55168U 23004AE  25258.47685243  .00000041  00000+0  71405-4 0  9990
2 55168  87.9042  60.5291 0002306  93.6154 266.5241 13.17649895131407
ONEWEB-0628             
1 55169U 23004AF  25258.34035740  .00000186  00000+0  48033-3 0  9998
2 55169  87.8907  45.2525 0002368  89.5058 270.6342 13.12442052131984
ONEWEB-0629             
1 55170U 23004AG  25258.52832218 -.00000008  00000+0 -54007-4 0  9999
2 55170  87.9050  60.5131 0001849  81.9382 278.1959 13.17648854131416
ONEWEB-0631             
1 55171U 23004AH  25258.12468587  .00000065  00000+0  13322-3 0  9995
2 55171  87.9192  30.0498 0002026 113.6989 246.4356 13.18684205133429
ONEWEB-0709             
1 55172U 23004AJ  25258.45966167 -.00000218  00000+0 -65206-3 0  9999
2 55172  87.8775  75.8225 0001443 123.5491 236.5775 13.11417774129867
ONEWEB-0710             
1 55173U 23004AK  25258.46670838  .00000027  00000+0  35813-4 0  9996
2 55173  87.9042  60.5211 0001925  92.7461 267.3891 13.17651647131400
ONEWEB-0711             
1 55174U 23004AL  25258.50714210 -.00000111  00000+0 -34770-3 0  9991
2 55174  87.8778  75.7805 0002487  90.2143 269.9270 13.11414738129832
ONEWEB-0713             
1 55175U 23004AM  25258.52578683 -.00000507  00000+0 -14650-2 0  9999
2 55175  87.8773  75.7838 0001982  90.3413 269.7942 13.11418152129821
ONEWEB-0715             
1 55176U 23004AN  25258.52071039 -.00000525  00000+0 -15168-2 0  9998
2 55176  87.8771  75.7850 0001838 113.8729 246.2592 13.11417799129866
ONEWEB-0716             
1 55177U 23004AP  25258.45997072 -.00000025  00000+0 -97193-4 0  9990
2 55177  87.9044  60.5218 0001478  86.4872 273.6429 13.17648353131409
ONEWEB-0717             
1 55178U 23004AQ  25258.21527968  .00000097  00000+0  21555-3 0  9993
2 55178  87.9052  60.5339 0002466  97.6605 262.4807 13.17648900131425
ONEWEB-0719             
1 55179U 23004AR  25258.37727432  .00000004  00000+0 -22475-4 0  9991
2 55179  87.9048  60.4844 0001657  83.7924 276.3396 13.17647013131399
ONEWEB-0530             
1 55796U 23029A   25258.16906774  .00000008  00000+0 -13083-4 0  9997
2 55796  87.9273 329.3152 0002366  93.1502 266.9902 13.20771681124841
ONEWEB-0534             
1 55797U 23029B   25258.45947301  .00000091  00000+0  19074-3 0  9997
2 55797  87.9265 329.2615 0001828  96.3169 263.8172 13.20772397124886
ONEWEB-0556             
1 55798U 23029C   25258.46578957  .00000178  00000+0  40482-3 0  9999
2 55798  87.9274 329.2557 0002051  76.0896 284.0466 13.20772091124885
ONEWEB-0562             
1 55799U 23029D   25258.60466090  .00000034  00000+0  51042-4 0  9996
2 55799  87.9267 329.2151 0002615  83.0195 277.1236 13.20769376124907
